{"type": "FeatureCollection", "features": [{"type": "Feature", "properties": {"norad_id": 26766, "name": "INTELSAT 10 (IS-10)", "group": "intelsat", "lat": -8.560948935350844, "lon": -34.87451600208537, "alt_km": 36102.362359021536, "timestamp": "2025-12-03T04:52:29.308782+00:00", "meta": {"OBJECT_NAME": "INTELSAT 10 (IS-10)", "OBJECT_ID": "2001-019A", "EPOCH": "2025-12-02T11:35:38.856768", "MEAN_MOTION": 0.99077787, "ECCENTRICITY": 0.00076986, "INCLINATION": 8.6036, "RA_OF_ASC_NODE": 61.2568, "ARG_OF_PERICENTER": 218.3784, "MEAN_ANOMALY": 148.6829, "EPHEMERIS_TYPE": 0, "CLASSIFICATION_TYPE": "U", "NORAD_CAT_ID": 26766, "ELEMENT_SET_NO": 999, "REV_AT_EPOCH": 4363, "BSTAR": 0, "MEAN_MOTION_DOT": -1.25e-06, "MEAN_MOTION_DDOT": 0}, "tle": {"line1": "1 26766U 01019A   25336.48308862 -.00000125  00000+0  00000+0 0  9993", "line2": "2 26766   8.6036  61.2568 0007698 218.3784 148.6829  0.99077787 43631"}}, "geometry": {"type": "Point", "coordinates": [-34.87451600208537, -8.560948935350844]}}, {"type": "Feature", "properties": {"norad_id": 26900, "name": "INTELSAT 902 (IS-902)", "group": "intelsat", "lat": 2.038710975527204, "lon": 95.15540495833213, "alt_km": 35802.824538451765, "timestamp": "2025-12-03T04:52:29.308806+00:00", "meta": {"OBJECT_NAME": "INTELSAT 902 (IS-902)", "OBJECT_ID": "2001-039A", "EPOCH": "2025-12-01T16:59:59.311968", "MEAN_MOTION": 1.00270327, "ECCENTRICITY": 0.00043097, "INCLINATION": 5.6187, "RA_OF_ASC_NODE": 74.2002, "ARG_OF_PERICENTER": 175.119, "MEAN_ANOMALY": 26.3816, "EPHEMERIS_TYPE": 0, "CLASSIFICATION_TYPE": "U", "NORAD_CAT_ID": 26900, "ELEMENT_SET_NO": 999, "REV_AT_EPOCH": 8871, "BSTAR": 0, "MEAN_MOTION_DOT": -2.63e-06, "MEAN_MOTION_DDOT": 0}, "tle": {"line1": "1 26900U 01039A   25335.70832537 -.00000263  00000+0  00000+0 0  9993", "line2": "2 26900   5.6187  74.2002 0004309 175.1190  26.3816  1.00270327 88713"}}, "geometry": {"type": "Point", "coordinates": [95.15540495833213, 2.038710975527204]}}, {"type": "Feature", "properties": {"norad_id": 27380, "name": "INTELSAT 904 (IS-904)", "group": "intelsat", "lat": 4.341715368900653, "lon": 113.71793109217958, "alt_km": 35791.9460350217, "timestamp": "2025-12-03T04:52:29.308822+00:00", "meta": {"OBJECT_NAME": "INTELSAT 904 (IS-904)", "OBJECT_ID": "2002-007A", "EPOCH": "2025-12-02T03:21:43.155648", "MEAN_MOTION": 1.0026967, "ECCENTRICITY": 0.0001502, "INCLINATION": 6.4264, "RA_OF_ASC_NODE": 71.5525, "ARG_OF_PERICENTER": 197.1555, "MEAN_ANOMALY": 181.4839, "EPHEMERIS_TYPE": 0, "CLASSIFICATION_TYPE": "U", "NORAD_CAT_ID": 27380, "ELEMENT_SET_NO": 999, "REV_AT_EPOCH": 4979, "BSTAR": 0, "MEAN_MOTION_DOT": -2.07e-06, "MEAN_MOTION_DDOT": 0}, "tle": {"line1": "1 27380U 02007A   25336.14008282 -.00000207  00000+0  00000+0 0  9991", "line2": "2 27380   6.4264  71.5525 0001502 197.1555 181.4839  1.00269670 49794"}}, "geometry": {"type": "Point", "coordinates": [113.71793109217958, 4.341715368900653]}}, {"type": "Feature", "properties": {"norad_id": 27426, "name": "DIRECTV 5 (TEMPO 1)", "group": "intelsat", "lat": -2.9278452619005093, "lon": 35.38897389000337, "alt_km": 35796.70522604669, "timestamp": "2025-12-03T04:52:29.308835+00:00", "meta": {"OBJECT_NAME": "DIRECTV 5 (TEMPO 1)", "OBJECT_ID": "2002-023A", "EPOCH": "2025-12-02T08:35:38.815296", "MEAN_MOTION": 1.00271138, "ECCENTRICITY": 0.00036989, "INCLINATION": 4.3735, "RA_OF_ASC_NODE": 77.7745, "ARG_OF_PERICENTER": 187.6548, "MEAN_ANOMALY": 184.8233, "EPHEMERIS_TYPE": 0, "CLASSIFICATION_TYPE": "U", "NORAD_CAT_ID": 27426, "ELEMENT_SET_NO": 999, "REV_AT_EPOCH": 8615, "BSTAR": 0, "MEAN_MOTION_DOT": -3.7e-07, "MEAN_MOTION_DDOT": 0}, "tle": {"line1": "1 27426U 02023A   25336.35808814 -.00000037  00000+0  00000+0 0  9993", "line2": "2 27426   4.3735  77.7745 0003698 187.6548 184.8233  1.00271138 86159"}}, "geometry": {"type": "Point", "coordinates": [35.38897389000337, -2.9278452619005093]}}, {"type": "Feature", "properties": {"norad_id": 27438, "name": "INTELSAT 905 (IS-905)", "group": "intelsat", "lat": -5.6041929327311095, "lon": 8.381115630034694, "alt_km": 35790.657743389354, "timestamp": "2025-12-03T04:52:29.308847+00:00", "meta": {"OBJECT_NAME": "INTELSAT 905 (IS-905)", "OBJECT_ID": "2002-027A", "EPOCH": "2025-12-02T09:56:38.679648", "MEAN_MOTION": 1.00272936, "ECCENTRICITY": 0.00030691, "INCLINATION": 6.2577, "RA_OF_ASC_NODE": 72.1733, "ARG_OF_PERICENTER": 187.1236, "MEAN_ANOMALY": 184.1903, "EPHEMERIS_TYPE": 0, "CLASSIFICATION_TYPE": "U", "NORAD_CAT_ID": 27438, "ELEMENT_SET_NO": 999, "REV_AT_EPOCH": 4939, "BSTAR": 0, "MEAN_MOTION_DOT": 1.12e-06, "MEAN_MOTION_DDOT": 0}, "tle": {"line1": "1 27438U 02027A   25336.41433657  .00000112  00000+0  00000+0 0  9999", "line2": "2 27438   6.2577  72.1733 0003069 187.1236 184.1903  1.00272936 49393"}}, "geometry": {"type": "Point", "coordinates": [8.381115630034694, -5.6041929327311095]}}, {"type": "Feature", "properties": {"norad_id": 27445, "name": "GALAXY 3C (G-3C)", "group": "intelsat", "lat": -1.5962886472480171, "lon": 50.56463943331974, "alt_km": 35790.031337549364, "timestamp": "2025-12-03T04:52:29.308859+00:00", "meta": {"OBJECT_NAME": "GALAXY 3C (G-3C)", "OBJECT_ID": "2002-030A", "EPOCH": "2025-12-02T13:20:05.112672", "MEAN_MOTION": 1.00270375, "ECCENTRICITY": 0.00012902, "INCLINATION": 3.2369, "RA_OF_ASC_NODE": 80.6086, "ARG_OF_PERICENTER": 97.4399, "MEAN_ANOMALY": 358.7751, "EPHEMERIS_TYPE": 0, "CLASSIFICATION_TYPE": "U", "NORAD_CAT_ID": 27445, "ELEMENT_SET_NO": 999, "REV_AT_EPOCH": 4452, "BSTAR": 0, "MEAN_MOTION_DOT": -1.33e-06, "MEAN_MOTION_DDOT": 0}, "tle": {"line1": "1 27445U 02030A   25336.55561473 -.00000133  00000+0  00000+0 0  9998", "line2": "2 27445   3.2369  80.6086 0001290  97.4399 358.7751  1.00270375 44524"}}, "geometry": {"type": "Point", "coordinates": [50.56463943331974, -1.5962886472480171]}}, {"type": "Feature", "properties": {"norad_id": 27513, "name": "INTELSAT 906 (IS-906)", "group": "intelsat", "lat": 3.7820069147646693, "lon": -150.3990497432227, "alt_km": 35771.091723260666, "timestamp": "2025-12-03T04:52:29.308885+00:00", "meta": {"OBJECT_NAME": "INTELSAT 906 (IS-906)", "OBJECT_ID": "2002-041A", "EPOCH": "2025-12-02T20:15:02.332800", "MEAN_MOTION": 1.00273061, "ECCENTRICITY": 0.0006113, "INCLINATION": 5.304, "RA_OF_ASC_NODE": 75.3487, "ARG_OF_PERICENTER": 191.2418, "MEAN_ANOMALY": 173.2452, "EPHEMERIS_TYPE": 0, "CLASSIFICATION_TYPE": "U", "NORAD_CAT_ID": 27513, "ELEMENT_SET_NO": 999, "REV_AT_EPOCH": 8506, "BSTAR": 0, "MEAN_MOTION_DOT": 3e-07, "MEAN_MOTION_DDOT": 0}, "tle": {"line1": "1 27513U 02041A   25336.84377700  .00000030  00000+0  00000+0 0  9991", "line2": "2 27513   5.3040  75.3487 0006113 191.2418 173.2452  1.00273061 85066"}}, "geometry": {"type": "Point", "coordinates": [-150.3990497432227, 3.7820069147646693]}}, {"type": "Feature", "properties": {"norad_id": 27954, "name": "GALAXY 13 (HORIZONS-1)", "group": "intelsat", "lat": -0.894554386456495, "lon": -4.590690023826198, "alt_km": 35788.88033168692, "timestamp": "2025-12-03T04:52:29.308900+00:00", "meta": {"OBJECT_NAME": "GALAXY 13 (HORIZONS-1)", "OBJECT_ID": "2003-044A", "EPOCH": "2025-12-02T16:29:43.335168", "MEAN_MOTION": 1.00272205, "ECCENTRICITY": 0.0002077, "INCLINATION": 0.9096, "RA_OF_ASC_NODE": 86.5934, "ARG_OF_PERICENTER": 159.8177, "MEAN_ANOMALY": 282.7994, "EPHEMERIS_TYPE": 0, "CLASSIFICATION_TYPE": "U", "NORAD_CAT_ID": 27954, "ELEMENT_SET_NO": 999, "REV_AT_EPOCH": 4460, "BSTAR": 0, "MEAN_MOTION_DOT": 1.53e-06, "MEAN_MOTION_DDOT": 0}, "tle": {"line1": "1 27954U 03044A   25336.68730712  .00000153  00000+0  00000+0 0  9998", "line2": "2 27954   0.9096  86.5934 0002077 159.8177 282.7994  1.00272205 44606"}}, "geometry": {"type": "Point", "coordinates": [-4.590690023826198, -0.894554386456495]}}, {"type": "Feature", "properties": {"norad_id": 28358, "name": "INTELSAT 10-02", "group": "intelsat", "lat": 0.0184375502236382, "lon": 144.3905392942931, "alt_km": 35789.52847233056, "timestamp": "2025-12-03T04:52:29.308913+00:00", "meta": {"OBJECT_NAME": "INTELSAT 10-02", "OBJECT_ID": "2004-022A", "EPOCH": "2025-12-02T17:12:16.756704", "MEAN_MOTION": 1.00271024, "ECCENTRICITY": 0.0001116, "INCLINATION": 0.0394, "RA_OF_ASC_NODE": 86.4631, "ARG_OF_PERICENTER": 191.795, "MEAN_ANOMALY": 50.6376, "EPHEMERIS_TYPE": 0, "CLASSIFICATION_TYPE": "U", "NORAD_CAT_ID": 28358, "ELEMENT_SET_NO": 999, "REV_AT_EPOCH": 7858, "BSTAR": 0, "MEAN_MOTION_DOT": 9e-08, "MEAN_MOTION_DDOT": 0}, "tle": {"line1": "1 28358U 04022A   25336.71686061  .00000009  00000+0  00000+0 0  9995", "line2": "2 28358   0.0394  86.4631 0001116 191.7950  50.6376  1.00271024 78585"}}, "geometry": {"type": "Point", "coordinates": [144.3905392942931, 0.0184375502236382]}}, {"type": "Feature", "properties": {"norad_id": 28626, "name": "XM-3 (RHYTHM)", "group": "intelsat", "lat": -0.1078097870032267, "lon": -55.06341235694072, "alt_km": 36156.60095283901, "timestamp": "2025-12-03T04:52:29.308925+00:00", "meta": {"OBJECT_NAME": "XM-3 (RHYTHM)", "OBJECT_ID": "2005-008A", "EPOCH": "2025-12-02T19:08:10.315104", "MEAN_MOTION": 0.98955046, "ECCENTRICITY": 8.64e-05, "INCLINATION": 0.1467, "RA_OF_ASC_NODE": 80.743, "ARG_OF_PERICENTER": 265.9206, "MEAN_ANOMALY": 173.7506, "EPHEMERIS_TYPE": 0, "CLASSIFICATION_TYPE": "U", "NORAD_CAT_ID": 28626, "ELEMENT_SET_NO": 999, "REV_AT_EPOCH": 4065, "BSTAR": 0, "MEAN_MOTION_DOT": -2.32e-06, "MEAN_MOTION_DDOT": 0}, "tle": {"line1": "1 28626U 05008A   25336.79734161 -.00000232  00000+0  00000+0 0  9990", "line2": "2 28626   0.1467  80.7430 0000864 265.9206 173.7506  0.98955046 40654"}}, "geometry": {"type": "Point", "coordinates": [-55.06341235694072, -0.1078097870032267]}}]}